[{"OBJECT_NAME":"DAMPE","OBJECT_ID":"2015-078A","EPOCH":"2026-03-09T23:55:00.527232","MEAN_MOTION":15.30502084,"ECCENTRICITY":0.00138005,"INCLINATION":97.4588,"RA_OF_ASC_NODE":73.9866,"ARG_OF_PERICENTER":70.6942,"MEAN_ANOMALY":289.579,"EPHEMERIS_TYPE":0,"CLASSIFICATION_TYPE":"U","NORAD_CAT_ID":41173,"ELEMENT_SET_NO":999,"REV_AT_EPOCH":56937,"BSTAR":9.1158173e-5,"MEAN_MOTION_DOT":2.617e-5,"MEAN_MOTION_DDOT":0},{"OBJECT_NAME":"STARLINK-34566","OBJECT_ID":"2025-147L","EPOCH":"2026-03-09T21:18:14.324256","MEAN_MOTION":15.30179956,"ECCENTRICITY":0.0001125,"INCLINATION":53.1587,"RA_OF_ASC_NODE":241.7163,"ARG_OF_PERICENTER":68.3537,"MEAN_ANOMALY":291.7584,"EPHEMERIS_TYPE":0,"CLASSIFICATION_TYPE":"U","NORAD_CAT_ID":64765,"ELEMENT_SET_NO":999,"REV_AT_EPOCH":3878,"BSTAR":0.00052945413,"MEAN_MOTION_DOT":0.00015345,"MEAN_MOTION_DDOT":0}]
